{
  "type": "FeatureCollection",
  "features": [
    {"type":"Feature","properties":{"id":"bosque-negro","kind":"forest","name":"Bosque Negro","altNames":["Mirkwood","Taur-nu-Fuin"],"labelZoom":-2},"geometry":{"type":"Polygon","coordinates":[[[1070,900],[1100,880],[1150,890],[1200,880],[1260,900],[1300,960],[1310,1050],[1300,1150],[1310,1250],[1280,1280],[1200,1275],[1120,1265],[1080,1230],[1075,1150],[1070,1050],[1060,980],[1070,900]]]}},
    {"type":"Feature","properties":{"id":"lothlorien","kind":"forest","name":"Lothlórien","altNames":["Lórien","Laurelindórenan"],"labelZoom":-1},"geometry":{"type":"Polygon","coordinates":[[[950,895],[965,925],[990,935],[1015,925],[1030,900],[1028,875],[1005,862],[975,868],[955,880],[950,895]]]}},
    {"type":"Feature","properties":{"id":"fangorn","kind":"forest","name":"Fangorn","altNames":["Bosque de Fangorn"],"labelZoom":-1},"geometry":{"type":"Polygon","coordinates":[[[818,700],[828,738],[852,752],[885,750],[910,732],[915,700],[900,670],[865,655],[832,660],[820,680],[818,700]]]}},
    {"type":"Feature","properties":{"id":"bosque-viejo","kind":"forest","name":"Bosque Viejo","altNames":["Old Forest"],"labelZoom":1},"geometry":{"type":"Polygon","coordinates":[[[425,1072],[450,1078],[478,1074],[490,1058],[472,1048],[445,1050],[426,1058],[425,1072]]]}},
    {"type":"Feature","properties":{"id":"bosque-de-chet","kind":"forest","name":"Bosque de Chet","altNames":["Chetwood"],"labelZoom":2},"geometry":{"type":"Polygon","coordinates":[[[515,1085],[532,1100],[555,1108],[565,1094],[548,1080],[525,1078],[515,1085]]]}},
    {"type":"Feature","properties":{"id":"bosque-de-los-trolls","kind":"forest","name":"Bosque de los Trolls","altNames":["Trollshaws"],"labelZoom":1},"geometry":{"type":"Polygon","coordinates":[[[790,1078],[805,1102],[830,1108],[842,1088],[826,1070],[800,1068],[790,1078]]]}},
    {"type":"Feature","properties":{"id":"bosque-cerrado","kind":"forest","name":"Bosque Cerrado","altNames":["Woody End"],"labelZoom":3},"geometry":{"type":"Polygon","coordinates":[[[384,1066],[392,1074],[400,1071],[399,1062],[389,1060],[384,1066]]]}},
    {"type":"Feature","properties":{"id":"eryn-vorn","kind":"forest","name":"Eryn Vorn","labelZoom":1},"geometry":{"type":"Polygon","coordinates":[[[345,845],[375,832],[392,850],[377,874],[348,876],[345,845]]]}},
    {"type":"Feature","properties":{"id":"bosque-de-firien","kind":"forest","name":"Bosque de Firien","altNames":["Firienwood"],"labelZoom":2},"geometry":{"type":"Polygon","coordinates":[[[950,538],[958,552],[978,555],[988,543],[972,533],[950,538]]]}},
    {"type":"Feature","properties":{"id":"bosque-de-druadan","kind":"forest","name":"Bosque de Drúadan","altNames":["Drúadan Forest"],"labelZoom":1},"geometry":{"type":"Polygon","coordinates":[[[1010,490],[1022,510],[1045,515],[1060,500],[1052,482],[1030,478],[1010,490]]]}},
    {"type":"Feature","properties":{"id":"bosques-de-ithilien","kind":"forest","name":"Ithilien","labelZoom":3},"geometry":{"type":"Polygon","coordinates":[[[1115,420],[1122,470],[1135,515],[1150,505],[1152,450],[1148,415],[1130,410],[1115,420]]]}},
    {"type":"Feature","properties":{"id":"cienagas-de-los-muertos","kind":"marsh","name":"Ciénagas de los Muertos","altNames":["Dead Marshes"],"labelZoom":0},"geometry":{"type":"Polygon","coordinates":[[[1130,560],[1150,575],[1185,578],[1195,560],[1170,545],[1140,545],[1130,560]]]}},
    {"type":"Feature","properties":{"id":"pantanos-de-moscagua","kind":"marsh","name":"Pantanos de Moscagua","altNames":["Midgewater Marshes"],"labelZoom":2},"geometry":{"type":"Polygon","coordinates":[[[555,1068],[570,1082],[592,1085],[598,1070],[580,1060],[560,1060],[555,1068]]]}},
    {"type":"Feature","properties":{"id":"campos-gladios","kind":"marsh","name":"Campos Gladios","altNames":["Gladden Fields"],"labelZoom":2},"geometry":{"type":"Polygon","coordinates":[[[982,995],[990,1010],[1004,1012],[1006,996],[994,990],[982,995]]]}},
    {"type":"Feature","properties":{"id":"nindalf","kind":"marsh","name":"Nindalf","altNames":["Wetwang"],"labelZoom":2},"geometry":{"type":"Polygon","coordinates":[[[1062,575],[1072,595],[1090,612],[1100,603],[1086,584],[1068,565],[1062,575]]]}}
  ]
}
