{
  "type": "FeatureCollection",
  "features": [
    {"type":"Feature","properties":{"id":"montanas-nubladas","kind":"range","name":"Montañas Nubladas","altNames":["Hithaeglir","Misty Mountains"],"width":44,"rank":1,"labelZoom":-2,"labelAt":0.28},"geometry":{"type":"LineString","coordinates":[[968,1392],[948,1300],[928,1200],[915,1110],[906,1020],[905,950],[906,905],[890,840],[870,800],[845,760],[820,720],[800,688],[795,675]]}},
    {"type":"Feature","properties":{"id":"montanas-azules-norte","kind":"range","name":"Montañas Azules","altNames":["Ered Luin","Blue Mountains"],"width":34,"rank":2,"labelZoom":-1,"labelAt":0.4},"geometry":{"type":"LineString","coordinates":[[150,1420],[160,1320],[170,1220],[175,1130]]}},
    {"type":"Feature","properties":{"id":"montanas-azules-sur","kind":"range","name":"Ered Luin","altNames":["Montañas Azules"],"width":26,"rank":3,"labelZoom":1},"geometry":{"type":"LineString","coordinates":[[185,1045],[195,1005],[215,975]]}},
    {"type":"Feature","properties":{"id":"montanas-grises","kind":"range","name":"Montañas Grises","altNames":["Ered Mithrin","Grey Mountains"],"width":34,"rank":2,"labelZoom":-1,"labelAt":0.5},"geometry":{"type":"LineString","coordinates":[[975,1398],[1080,1405],[1200,1393],[1320,1382]]}},
    {"type":"Feature","properties":{"id":"colinas-de-hierro","kind":"range","name":"Colinas de Hierro","altNames":["Iron Hills"],"width":26,"rank":3,"labelZoom":0},"geometry":{"type":"LineString","coordinates":[[1465,1252],[1515,1262],[1565,1258]]}},
    {"type":"Feature","properties":{"id":"montanas-blancas","kind":"range","name":"Montañas Blancas","altNames":["Ered Nimrais","White Mountains"],"width":48,"rank":1,"labelZoom":-2,"labelAt":0.62},"geometry":{"type":"LineString","coordinates":[[565,380],[590,430],[630,480],[690,520],[750,550],[800,575],[850,548],[910,532],[970,515],[1005,470],[1040,432],[1080,405]]}},
    {"type":"Feature","properties":{"id":"ephel-duath","kind":"range","name":"Montañas de la Sombra","altNames":["Ephel Dúath","Mountains of Shadow"],"width":30,"rank":2,"labelZoom":-1,"labelAt":0.55},"geometry":{"type":"LineString","coordinates":[[1165,520],[1163,460],[1160,400],[1165,330],[1190,262],[1250,225],[1350,212],[1450,222],[1540,250]]}},
    {"type":"Feature","properties":{"id":"ered-lithui","kind":"range","name":"Montañas de Ceniza","altNames":["Ered Lithui","Ash Mountains"],"width":30,"rank":2,"labelZoom":-1,"labelAt":0.55},"geometry":{"type":"LineString","coordinates":[[1168,527],[1250,532],[1350,527],[1450,512],[1540,492]]}},
    {"type":"Feature","properties":{"id":"montanas-de-angmar","kind":"range","name":"Montañas de Angmar","width":26,"rank":3,"labelZoom":0},"geometry":{"type":"LineString","coordinates":[[700,1340],[780,1372],[860,1390]]}},
    {"type":"Feature","properties":{"id":"emyn-muil-oeste","kind":"hills","name":"Emyn Muil","width":26,"rank":2,"labelZoom":0,"labelAt":0.5},"geometry":{"type":"LineString","coordinates":[[1005,700],[1022,670],[1038,640]]}},
    {"type":"Feature","properties":{"id":"emyn-muil-este","kind":"hills","name":"Emyn Muil","width":30,"rank":3,"labelZoom":2},"geometry":{"type":"LineString","coordinates":[[1072,695],[1092,660],[1105,625],[1110,605]]}},
    {"type":"Feature","properties":{"id":"colinas-de-los-vientos","kind":"hills","name":"Colinas de los Vientos","altNames":["Weather Hills"],"width":16,"rank":3,"labelZoom":0},"geometry":{"type":"LineString","coordinates":[[606.9,1160],[608.0,1120],[613.0,1084]]}},
    {"type":"Feature","properties":{"id":"quebradas-de-los-tumulos","kind":"hills","name":"Quebradas de los Túmulos","altNames":["Barrow-downs"],"width":14,"rank":3,"labelZoom":1},"geometry":{"type":"LineString","coordinates":[[453.2,1030],[462.4,1040],[472.2,1050]]}},
    {"type":"Feature","properties":{"id":"quebradas-del-norte","kind":"hills","name":"Quebradas del Norte","altNames":["North Downs"],"width":20,"rank":3,"labelZoom":0},"geometry":{"type":"LineString","coordinates":[[478,1232],[520,1242],[565,1238]]}},
    {"type":"Feature","properties":{"id":"quebradas-del-sur","kind":"hills","name":"Quebradas del Sur","altNames":["South Downs"],"width":18,"rank":3,"labelZoom":1},"geometry":{"type":"LineString","coordinates":[[514.2,1022],[557.5,1010],[596.1,1000]]}},
    {"type":"Feature","properties":{"id":"colinas-de-las-torres","kind":"hills","name":"Colinas de las Torres","altNames":["Emyn Beraid","Tower Hills"],"width":10,"rank":3,"labelZoom":1},"geometry":{"type":"LineString","coordinates":[[226,1068],[232,1095]]}},
    {"type":"Feature","properties":{"id":"colinas-de-evendim","kind":"hills","name":"Colinas de Evendim","altNames":["Emyn Uial"],"width":16,"rank":3,"labelZoom":1},"geometry":{"type":"LineString","coordinates":[[300,1262],[335,1275],[365,1268]]}},
    {"type":"Feature","properties":{"id":"landas-de-etten","kind":"hills","name":"Landas de Etten","altNames":["Ettenmoors"],"width":26,"rank":3,"labelZoom":0},"geometry":{"type":"LineString","coordinates":[[780,1250],[800,1200],[810,1150]]}},
    {"type":"Feature","properties":{"id":"morgai","kind":"hills","name":"Morgai","width":10,"rank":3,"labelZoom":2},"geometry":{"type":"LineString","coordinates":[[1190,482],[1193,440],[1200,385]]}},
    {"type":"Feature","properties":{"id":"montanas-del-bosque-negro","kind":"hills","name":"Montañas del Bosque Negro","width":22,"rank":3,"labelZoom":1},"geometry":{"type":"LineString","coordinates":[[1140,1150],[1180,1170],[1225,1185]]}},
    {"type":"Feature","properties":{"id":"dol-baran-colina","kind":"hills","name":"Dol Baran","width":8,"rank":3,"labelZoom":3},"geometry":{"type":"LineString","coordinates":[[804,646],[812,638]]}},
    {"type":"Feature","properties":{"id":"caradhras","kind":"peak","name":"Caradhras","altNames":["Barazinbar","Cuerno Rojo","Redhorn"],"rank":2,"labelZoom":1},"geometry":{"type":"Point","coordinates":[908,914]}},
    {"type":"Feature","properties":{"id":"celebdil","kind":"peak","name":"Celebdil","altNames":["Zirakzigil","Cuerno de Plata","Silvertine"],"rank":3,"labelZoom":2},"geometry":{"type":"Point","coordinates":[922,902]}},
    {"type":"Feature","properties":{"id":"fanuidhol","kind":"peak","name":"Fanuidhol","altNames":["Bundushathûr","Cloudyhead"],"rank":3,"labelZoom":3},"geometry":{"type":"Point","coordinates":[914,924]}},
    {"type":"Feature","properties":{"id":"methedras","kind":"peak","name":"Methedras","rank":2,"labelZoom":1},"geometry":{"type":"Point","coordinates":[795,676]}},
    {"type":"Feature","properties":{"id":"gundabad","kind":"peak","name":"Monte Gundabad","rank":2,"labelZoom":0},"geometry":{"type":"Point","coordinates":[966,1390]}},
    {"type":"Feature","properties":{"id":"erebor-monte","kind":"peak","name":"Erebor","altNames":["Montaña Solitaria","Lonely Mountain"],"rank":1,"labelZoom":-1},"geometry":{"type":"Point","coordinates":[1360,1245]}},
    {"type":"Feature","properties":{"id":"orodruin","kind":"peak","name":"Orodruin","altNames":["Monte del Destino","Amon Amarth","Mount Doom"],"rank":1,"labelZoom":3},"geometry":{"type":"Point","coordinates":[1245,430]}},
    {"type":"Feature","properties":{"id":"mindolluin","kind":"peak","name":"Mindolluin","rank":2,"labelZoom":2},"geometry":{"type":"Point","coordinates":[1079,403]}},
    {"type":"Feature","properties":{"id":"trihyrne","kind":"peak","name":"Trihyrne","altNames":["Thrihyrne"],"rank":3,"labelZoom":2},"geometry":{"type":"Point","coordinates":[800,576]}},
    {"type":"Feature","properties":{"id":"starkhorn","kind":"peak","name":"Starkhorn","rank":3,"labelZoom":2},"geometry":{"type":"Point","coordinates":[880,532]}},
    {"type":"Feature","properties":{"id":"dwimorberg","kind":"peak","name":"Dwimorberg","altNames":["Montaña Embrujada","Haunted Mountain"],"rank":3,"labelZoom":2},"geometry":{"type":"Point","coordinates":[893,528]}},
    {"type":"Feature","properties":{"id":"amon-hen-monte","kind":"peak","name":"Amon Hen","rank":3,"labelZoom":3},"geometry":{"type":"Point","coordinates":[1040,652]}},
    {"type":"Feature","properties":{"id":"amon-lhaw-monte","kind":"peak","name":"Amon Lhaw","rank":3,"labelZoom":3},"geometry":{"type":"Point","coordinates":[1066,655]}}
  ]
}
