{
  "type": "FeatureCollection",
  "features": [
    {"type":"Feature","properties":{"id":"eriador","kind":"region","name":"Eriador","rank":1,"labelZoom":-3},"geometry":{"type":"Point","coordinates":[600,960]}},
    {"type":"Feature","properties":{"id":"rhovanion","kind":"region","name":"Rhovanion","altNames":["Tierras Ásperas","Wilderland"],"rank":1,"labelZoom":-3},"geometry":{"type":"Point","coordinates":[1420,1110]}},
    {"type":"Feature","properties":{"id":"rohan","kind":"region","name":"Rohan","altNames":["La Marca de los Jinetes","Riddermark"],"rank":1,"labelZoom":-3},"geometry":{"type":"Point","coordinates":[945,600]}},
    {"type":"Feature","properties":{"id":"gondor","kind":"region","name":"Gondor","rank":1,"labelZoom":-3},"geometry":{"type":"Point","coordinates":[960,395]}},
    {"type":"Feature","properties":{"id":"mordor","kind":"region","name":"Mordor","rank":1,"labelZoom":-3},"geometry":{"type":"Point","coordinates":[1350,395]}},
    {"type":"Feature","properties":{"id":"harad","kind":"region","name":"Harad","rank":1,"labelZoom":-3},"geometry":{"type":"Point","coordinates":[1200,90]}},
    {"type":"Feature","properties":{"id":"rhun","kind":"region","name":"Rhûn","rank":1,"labelZoom":-3},"geometry":{"type":"Point","coordinates":[1760,1060]}},
    {"type":"Feature","properties":{"id":"lindon","kind":"region","name":"Lindon","rank":2,"labelZoom":-2},"geometry":{"type":"Point","coordinates":[100,1210]}},
    {"type":"Feature","properties":{"id":"forochel","kind":"region","name":"Forochel","rank":2,"labelZoom":-2},"geometry":{"type":"Point","coordinates":[440,1415]}},
    {"type":"Feature","properties":{"id":"angmar","kind":"region","name":"Angmar","rank":2,"labelZoom":-1},"geometry":{"type":"Point","coordinates":[740,1320]}},
    {"type":"Feature","properties":{"id":"la-comarca","kind":"region","name":"La Comarca","altNames":["The Shire"],"rank":2,"labelZoom":-1},"geometry":{"type":"Point","coordinates":[350,1122]}},
    {"type":"Feature","properties":{"id":"minhiriath","kind":"region","name":"Minhiriath","rank":2,"labelZoom":-1},"geometry":{"type":"Point","coordinates":[480,835]}},
    {"type":"Feature","properties":{"id":"enedwaith","kind":"region","name":"Enedwaith","rank":2,"labelZoom":-1},"geometry":{"type":"Point","coordinates":[650,690]}},
    {"type":"Feature","properties":{"id":"tierras-pardas","kind":"region","name":"Tierras Pardas","altNames":["Brown Lands"],"rank":2,"labelZoom":-1},"geometry":{"type":"Point","coordinates":[1110,775]}},
    {"type":"Feature","properties":{"id":"ithilien","kind":"region","name":"Ithilien","rank":2,"labelZoom":0},"geometry":{"type":"Point","coordinates":[1128,440]}},
    {"type":"Feature","properties":{"id":"lebennin","kind":"region","name":"Lebennin","rank":2,"labelZoom":-1},"geometry":{"type":"Point","coordinates":[1005,315]}},
    {"type":"Feature","properties":{"id":"belfalas","kind":"region","name":"Belfalas","rank":2,"labelZoom":-1},"geometry":{"type":"Point","coordinates":[775,362]}},
    {"type":"Feature","properties":{"id":"nurn","kind":"region","name":"Nurn","rank":2,"labelZoom":-1},"geometry":{"type":"Point","coordinates":[1480,268]}},
    {"type":"Feature","properties":{"id":"umbar","kind":"region","name":"Umbar","rank":2,"labelZoom":-1},"geometry":{"type":"Point","coordinates":[935,28]}},
    {"type":"Feature","properties":{"id":"khand","kind":"region","name":"Khand","rank":2,"labelZoom":-1},"geometry":{"type":"Point","coordinates":[1620,140]}},
    {"type":"Feature","properties":{"id":"tierra-de-bree","kind":"region","name":"Tierra de Bree","altNames":["Bree-land"],"rank":3,"labelZoom":1},"geometry":{"type":"Point","coordinates":[525,1100]}},
    {"type":"Feature","properties":{"id":"los-gamos","kind":"region","name":"Los Gamos","altNames":["Buckland"],"rank":3,"labelZoom":2},"geometry":{"type":"Point","coordinates":[422,1050]}},
    {"type":"Feature","properties":{"id":"dunland","kind":"region","name":"Dunland","altNames":["Tierra Brunia"],"rank":3,"labelZoom":0},"geometry":{"type":"Point","coordinates":[725,690]}},
    {"type":"Feature","properties":{"id":"landas-de-etten-region","kind":"region","name":"Rhudaur","rank":3,"labelZoom":0},"geometry":{"type":"Point","coordinates":[730,1170]}},
    {"type":"Feature","properties":{"id":"folde-oeste","kind":"region","name":"Folde Oeste","altNames":["Westfold"],"rank":3,"labelZoom":1},"geometry":{"type":"Point","coordinates":[828,612]}},
    {"type":"Feature","properties":{"id":"folde-este","kind":"region","name":"Folde Este","altNames":["Eastfold"],"rank":3,"labelZoom":1},"geometry":{"type":"Point","coordinates":[985,558]}},
    {"type":"Feature","properties":{"id":"la-ondulada","kind":"region","name":"La Ondulada","altNames":["The Wold"],"rank":3,"labelZoom":0},"geometry":{"type":"Point","coordinates":[985,725]}},
    {"type":"Feature","properties":{"id":"emnet-este","kind":"region","name":"Emnet Este","altNames":["East Emnet"],"rank":3,"labelZoom":1},"geometry":{"type":"Point","coordinates":[970,680]}},
    {"type":"Feature","properties":{"id":"anorien","kind":"region","name":"Anórien","rank":3,"labelZoom":0},"geometry":{"type":"Point","coordinates":[1030,528]}},
    {"type":"Feature","properties":{"id":"lossarnach","kind":"region","name":"Lossarnach","rank":3,"labelZoom":1},"geometry":{"type":"Point","coordinates":[1060,370]}},
    {"type":"Feature","properties":{"id":"lamedon","kind":"region","name":"Lamedon","rank":3,"labelZoom":1},"geometry":{"type":"Point","coordinates":[880,475]}},
    {"type":"Feature","properties":{"id":"anfalas","kind":"region","name":"Anfalas","rank":3,"labelZoom":0},"geometry":{"type":"Point","coordinates":[680,385]}},
    {"type":"Feature","properties":{"id":"pinnath-gelin","kind":"region","name":"Pinnath Gelin","rank":3,"labelZoom":1},"geometry":{"type":"Point","coordinates":[720,450]}},
    {"type":"Feature","properties":{"id":"gorgoroth","kind":"region","name":"Gorgoroth","rank":3,"labelZoom":0},"geometry":{"type":"Point","coordinates":[1255,470]}},
    {"type":"Feature","properties":{"id":"udun","kind":"region","name":"Udûn","rank":3,"labelZoom":2},"geometry":{"type":"Point","coordinates":[1182,505]}},
    {"type":"Feature","properties":{"id":"dagorlad","kind":"region","name":"Dagorlad","altNames":["Llanura de la Batalla"],"rank":3,"labelZoom":0},"geometry":{"type":"Point","coordinates":[1235,565]}},
    {"type":"Feature","properties":{"id":"frontera-comarca","kind":"border","name":"La Comarca","note":"Frontera aproximada; al este la marca el Brandivino (sin Los Gamos)."},"geometry":{"type":"LineString","coordinates":[[404,1104],[396,1158],[340,1168],[302,1150],[296,1100],[290,1030],[310,1012],[350,1005],[395,985],[420,962]]}}
  ]
}
