{
  "type": "FeatureCollection",
  "features": [
    {"type":"Feature","properties":{"id":"anduin","kind":"river","name":"Anduin","altNames":["Río Grande","Great River"],"rank":5,"labelZoom":-2,"labelAt":0.2},"geometry":{"type":"LineString","coordinates":[[1005,1385],[995,1300],[990,1210],[985,1120],[990,1060],[995,1000],[1010,950],[1022,900],[1028,870],[1035,820],[1040,780],[1045,735],[1048,700],[1052,672],[1055,632],[1058,595],[1062,560],[1075,520],[1085,480],[1100,440],[1110,402],[1108,375],[1100,340],[1090,300],[1078,263],[1062,225],[1050,200],[1040,172]]}},
    {"type":"Feature","properties":{"id":"brandivino","kind":"river","name":"Brandivino","altNames":["Baranduin","Brandywine"],"rank":4,"labelZoom":0,"labelAt":0.75},"geometry":{"type":"LineString","coordinates":[[340,1213],[365,1180],[395,1130],[408,1095],[410,1083],[412,1066],[416,1040],[418,1010],[420,950],[415,880],[400,800]]}},
    {"type":"Feature","properties":{"id":"el-agua","kind":"river","name":"El Agua","altNames":["The Water"],"rank":1,"labelZoom":2},"geometry":{"type":"LineString","coordinates":[[340,1100],[356,1093],[370,1088],[380,1083],[398,1078],[410,1075]]}},
    {"type":"Feature","properties":{"id":"tornasauce","kind":"river","name":"Tornasauce","altNames":["Withywindle"],"rank":1,"labelZoom":2},"geometry":{"type":"LineString","coordinates":[[463.5,1046],[450.9,1052],[438.2,1050],[427.9,1048],[415,1048]]}},
    {"type":"Feature","properties":{"id":"lhun","kind":"river","name":"Lhûn","altNames":["Lune"],"rank":3,"labelZoom":0,"labelAt":0.4},"geometry":{"type":"LineString","coordinates":[[240,1380],[215,1270],[200,1160],[190,1100],[185,1080]]}},
    {"type":"Feature","properties":{"id":"fontegris","kind":"river","name":"Fontegrís","altNames":["Mitheithel","Hoarwell"],"rank":3,"labelZoom":0,"labelAt":0.6},"geometry":{"type":"LineString","coordinates":[[760,1300],[765,1180],[770,1070],[760,980],[740,900],[720,860]]}},
    {"type":"Feature","properties":{"id":"bruinen","kind":"river","name":"Bruinen","altNames":["Sonorona","Loudwater"],"rank":2,"labelZoom":1,"labelAt":0.65},"geometry":{"type":"LineString","coordinates":[[885,1120],[865,1085],[850,1068],[835,1055],[800,1020],[765,1000]]}},
    {"type":"Feature","properties":{"id":"glanduin","kind":"river","name":"Glanduin","rank":2,"labelZoom":1,"labelAt":0.5},"geometry":{"type":"LineString","coordinates":[[875,862],[840,862],[800,860],[760,856],[720,860]]}},
    {"type":"Feature","properties":{"id":"aguada-gris","kind":"river","name":"Aguada Gris","altNames":["Gwathló","Greyflood"],"rank":4,"labelZoom":0,"labelAt":0.6},"geometry":{"type":"LineString","coordinates":[[720,860],[690,840],[660,820],[620,780],[580,735],[540,695]]}},
    {"type":"Feature","properties":{"id":"isen","kind":"river","name":"Isen","altNames":["Angren"],"rank":3,"labelZoom":0,"labelAt":0.6},"geometry":{"type":"LineString","coordinates":[[795,668],[790,640],[785,615],[772,595],[735,580],[695,575],[657,560]]}},
    {"type":"Feature","properties":{"id":"adorn","kind":"river","name":"Adorn","rank":1,"labelZoom":2},"geometry":{"type":"LineString","coordinates":[[690,525],[705,555],[715,577]]}},
    {"type":"Feature","properties":{"id":"entaguas","kind":"river","name":"Entaguas","altNames":["Onodló","Entwash"],"rank":3,"labelZoom":0,"labelAt":0.45},"geometry":{"type":"LineString","coordinates":[[862,702],[900,665],[940,630],[955,612],[985,590],[1015,575],[1045,565],[1062,560]]}},
    {"type":"Feature","properties":{"id":"nevado","kind":"river","name":"Nevado","altNames":["Snowbourn"],"rank":1,"labelZoom":2},"geometry":{"type":"LineString","coordinates":[[884,545],[883,570],[905,605],[925,638]]}},
    {"type":"Feature","properties":{"id":"mering","kind":"river","name":"Arroyo Mering","altNames":["Mering Stream"],"rank":1,"labelZoom":2},"geometry":{"type":"LineString","coordinates":[[995,520],[1008,548],[1022,571]]}},
    {"type":"Feature","properties":{"id":"limclaro","kind":"river","name":"Limclaro","altNames":["Limlight"],"rank":2,"labelZoom":1,"labelAt":0.5},"geometry":{"type":"LineString","coordinates":[[900,748],[960,765],[1000,775],[1040,780]]}},
    {"type":"Feature","properties":{"id":"cauce-de-plata","kind":"river","name":"Cauce de Plata","altNames":["Celebrant","Silverlode"],"rank":2,"labelZoom":1,"labelAt":0.45},"geometry":{"type":"LineString","coordinates":[[936,898],[960,897],[995,893],[1025,887]]}},
    {"type":"Feature","properties":{"id":"nimrodel","kind":"river","name":"Nimrodel","rank":1,"labelZoom":2},"geometry":{"type":"LineString","coordinates":[[945,935],[962,914],[978,898]]}},
    {"type":"Feature","properties":{"id":"gladio","kind":"river","name":"Gladio","altNames":["Gladden"],"rank":2,"labelZoom":1},"geometry":{"type":"LineString","coordinates":[[915,1012],[955,1002],[995,1000]]}},
    {"type":"Feature","properties":{"id":"rio-del-bosque","kind":"river","name":"Río del Bosque","altNames":["Forest River"],"rank":2,"labelZoom":1},"geometry":{"type":"LineString","coordinates":[[1300,1300],[1290,1222],[1330,1192],[1354,1200]]}},
    {"type":"Feature","properties":{"id":"rio-rapido","kind":"river","name":"Río Rápido","altNames":["Celduin","Running River"],"rank":3,"labelZoom":0,"labelAt":0.6},"geometry":{"type":"LineString","coordinates":[[1360,1238],[1358,1210],[1358,1163],[1380,1100],[1420,1040],[1470,990],[1515,935]]}},
    {"type":"Feature","properties":{"id":"carnen","kind":"river","name":"Carnen","altNames":["Agua Roja","Redwater"],"rank":2,"labelZoom":1},"geometry":{"type":"LineString","coordinates":[[1530,1250],[1520,1120],[1490,1030],[1470,990]]}},
    {"type":"Feature","properties":{"id":"morgulduin","kind":"river","name":"Morgulduin","rank":1,"labelZoom":3},"geometry":{"type":"LineString","coordinates":[[1152,400],[1135,392],[1118,383],[1107,378]]}},
    {"type":"Feature","properties":{"id":"erui","kind":"river","name":"Erui","rank":1,"labelZoom":2},"geometry":{"type":"LineString","coordinates":[[1065,435],[1078,370],[1090,302]]}},
    {"type":"Feature","properties":{"id":"sirith","kind":"river","name":"Sirith","rank":2,"labelZoom":1},"geometry":{"type":"LineString","coordinates":[[1010,470],[1030,400],[1055,320],[1078,263]]}},
    {"type":"Feature","properties":{"id":"gilrain","kind":"river","name":"Gilrain","rank":2,"labelZoom":1},"geometry":{"type":"LineString","coordinates":[[945,480],[935,400],[930,330],[930,268]]}},
    {"type":"Feature","properties":{"id":"ciril","kind":"river","name":"Ciril","rank":1,"labelZoom":2},"geometry":{"type":"LineString","coordinates":[[890,492],[885,445],[870,400],[850,362]]}},
    {"type":"Feature","properties":{"id":"morthond","kind":"river","name":"Morthond","altNames":["Raíz Negra","Blackroot"],"rank":2,"labelZoom":1,"labelAt":0.4},"geometry":{"type":"LineString","coordinates":[[856,492],[845,430],[850,370],[848,330],[848,298]]}},
    {"type":"Feature","properties":{"id":"lefnui","kind":"river","name":"Lefnui","rank":1,"labelZoom":2},"geometry":{"type":"LineString","coordinates":[[690,500],[660,420],[640,330]]}},
    {"type":"Feature","properties":{"id":"poros","kind":"river","name":"Poros","rank":2,"labelZoom":1},"geometry":{"type":"LineString","coordinates":[[1250,222],[1180,205],[1110,215],[1065,228]]}}
  ]
}
